{"type":"FeatureCollection","features":[
{"type":"Feature","geometry":{"type":"Point","coordinates":[135.3927219,35.4748295]},"properties":{"name":"八千代館 (Yachiyokan)","amenity":"cinema","name:en":"Yachiyokan","name:ja":"八千代館"}},
{"type":"Feature","geometry":{"type":"Point","coordinates":[135.7966895,34.5295035]},"properties":{"name":"MOVIX橿原","amenity":"cinema"}},
{"type":"Feature","geometry":{"type":"Point","coordinates":[135.7411433,35.0102578]},"properties":{"name":"TOHOシネマズ二条 (TOHO theatre Nijo)","source":"Bing, 2007-12","amenity":"cinema"}},
{"type":"Feature","geometry":{"type":"Point","coordinates":[135.741439,35.0235715]},"properties":{"amenity":"cinema","name":"千本日活","wikidata":"Q17222756","wikipedia":"ja:千本日活"}},
{"type":"Feature","geometry":{"type":"Point","coordinates":[135.4753349,34.6740883]},"properties":{"name":"シネ・ヌーヴォ","level":"0","source":"Bing,2008-03; survey","amenity":"cinema"}},
{"type":"Feature","geometry":{"type":"Point","coordinates":[135.1463454,34.6543635]},"properties":{"amenity":"cinema","name":"神戸映画資料館","name:en":"Kobe Planet Film Archive","tourism":"museum"}},
{"type":"Feature","geometry":{"type":"Point","coordinates":[136.6631354,35.0707224]},"properties":{"addr:block_number":"35","addr:city":"桑名市","addr:country":"JP","addr:neighbourhood":"1","addr:postcode":"511-0863","addr:province":"三重県","addr:quarter":"新西方","amenity":"cinema","level":"4","name":"イオンシネマ","name:en":"AEON Cinema","name:ja":"イオンシネマ","phone":"0594-24-4845","website":"https://cinema.aeoncinema.com/wm/kuwana/"}},
{"type":"Feature","geometry":{"type":"Point","coordinates":[135.7192065,34.5855062]},"properties":{"name":"WARNER BRO Cinema","amenity":"cinema"}},
{"type":"Feature","geometry":{"type":"Point","coordinates":[135.5009497,34.6655266]},"properties":{"amenity":"cinema","branch":"なんば本館","level":"7","name":"TOHO シネマズなんば","name:en":"TOHO Cinemas　Namba","toilets:wheelchair":"yes","wheelchair":"yes"}},
{"type":"Feature","geometry":{"type":"Point","coordinates":[135.1735551,34.6762811]},"properties":{"name":"KAVCキネマ","levels":"-1","source":"Survey","amenity":"cinema","name:en":"KAVC Cinema","name:ja":"KAVCキネマ"}},
{"type":"Feature","geometry":{"type":"Point","coordinates":[135.1747231,34.6759204]},"properties":{"amenity":"cinema","name":"シネマ神戸","name:en":"Cinema Kobe","name:ja":"シネマ神戸"}},
{"type":"Feature","geometry":{"type":"Point","coordinates":[135.6168683,34.3312551]},"properties":{"name":"橋本体育館","amenity":"cinema"}},
{"type":"Feature","geometry":{"type":"Point","coordinates":[135.4986245,34.7005703]},"properties":{"amenity":"cinema","level":"6","name":"梅田ブルク7","name:en":"Umeda Burg 7","website":"http://kinezo.jp/pc/t-joy_burg7"}},
{"type":"Feature","geometry":{"type":"Point","coordinates":[135.416519,34.7525249]},"properties":{"addr:city":"尼崎市南塚口町2丁目1-1-103","addr:postcode":"661-0012","amenity":"cinema","indoor":"yes","level":"-2;0","name":"塚口サンサン劇場","name:ja_kana":"つかぐちさんさんげきじょう","note":"車椅子利用の場合、最後部の階段のみ入場不可 スタッフがサポートすることで入場可能","phone":"+81-6-6429-3581","source":"local knowledge","website":"http://www.sunsun.info/","wheelchair":"limited","wikidata":"Q18338714","wikipedia":"ja:塚口サンサン劇場"}},
{"type":"Feature","geometry":{"type":"Point","coordinates":[135.6984763,34.8439949]},"properties":{"amenity":"cinema","name":"シネプレックス枚方","toilets:wheelchair":"yes","wheelchair":"yes","wikidata":"Q11307405"}},
{"type":"Feature","geometry":{"type":"Point","coordinates":[135.3617226,34.8155269]},"properties":{"addr:city":"宝塚市売布2-5-1 ピピアめふ5F","addr:postcode":"665-0852","amenity":"cinema","fax":"0797-83-1013","name":"宝塚シネ・ピピア","name:en":"Cine Pipia","name:ja_kana":"たからづかしねぴぴあ","phone":"0797-87-3565","source":"local knowledge","website":"http://www.cinepipia.com/","wheelchair":"yes","wikidata":"Q17229055","wikipedia":"ja:宝塚シネ・ピピア"}},
{"type":"Feature","geometry":{"type":"Point","coordinates":[135.4314092,34.7335575]},"properties":{"addr:city":"尼崎市潮江1-3-1","addr:postcode":"661-0976","amenity":"cinema","level":"3;4;5;6;","name":"MOVIXあまがさき","name:ja-Hira":"むーびっくすあまがさき","operator:wikidata":"Q11532184","operator:wikipedia":"ja:松竹マルチプレックスシアターズ","phone":"+81-6-4960-7500","room":"yes","source":"local knowledge","website":"https://www.smt-cinema.com/site/amagasaki/","wheelchair":"yes"}},
{"type":"Feature","geometry":{"type":"Point","coordinates":[134.6937094,34.8271476]},"properties":{"name":"アースシネマズ姫路","level":"3","amenity":"cinema","name:en":"Earth cinemas Himeji","operator":"ハリマ企業株式会社","cinema:3D":"yes","opening_date":"2015-07-24"}},
{"type":"Feature","geometry":{"type":"Point","coordinates":[135.5113566,34.6465093]},"properties":{"amenity":"cinema","level":"3","name":"アポロシネマ"}},
{"type":"Feature","geometry":{"type":"Point","coordinates":[136.5187457,34.7374179]},"properties":{"name":"ワーナーマイカルシネマズ津","amenity":"cinema"}},
{"type":"Feature","geometry":{"type":"Point","coordinates":[135.186261,34.9083543]},"properties":{"amenity":"cinema","name":"イオンシネマ","name:en":"AEON Cinema","name:ja":"イオンシネマ","phone":"+81 79 563 8787","website":"https://cinema.aeoncinema.com/wm/sanda/"}},
{"type":"Feature","geometry":{"type":"Point","coordinates":[134.8612133,34.7484735]},"properties":{"name":"イオンシネマ","level":"3","branch":"東加古川","amenity":"cinema"}},
{"type":"Feature","geometry":{"type":"Point","coordinates":[135.1534336,34.2392147]},"properties":{"name":"ジストシネマ和歌山","amenity":"cinema"}},
{"type":"Feature","geometry":{"type":"Point","coordinates":[135.5041426,34.7069726]},"properties":{"amenity":"cinema","name":"天劇キネマトロン"}},
{"type":"Feature","geometry":{"type":"Point","coordinates":[135.458209,34.5246931]},"properties":{"amenity":"cinema","branch":"鳳","branch:en":"Otori","name":"TOHOシネマズ","name:en":"TOHO Cinemas","name:ja":"TOHOシネマズ","opening_hours":"09:30-00:30","website":"https://hlo.tohotheater.jp/net/schedule/045/TNPI2000J01.do"}},
{"type":"Feature","geometry":{"type":"Point","coordinates":[136.6169132,34.9684846]},"properties":{"name":"109シネマズ","amenity":"cinema"}},
{"type":"Feature","geometry":{"type":"Point","coordinates":[135.266688,34.3792742]},"properties":{"amenity":"cinema","brand":"イオンシネマ","brand:en":"AEON Cinema","brand:ja":"イオンシネマ","brand:wikidata":"Q17192792","brand:wikipedia":"ja:イオンエンターテイメント","name":"イオンシネマ","name:en":"AEON Cinema","name:ja":"イオンシネマ"}},
{"type":"Feature","geometry":{"type":"Point","coordinates":[135.5345478,34.8054765]},"properties":{"amenity":"cinema","branch":"大阪エキスポシティ","name":"109シネマズ","name:en":"109CINEMAS","name:ja":"109シネマズ"}},
{"type":"Feature","geometry":{"type":"Point","coordinates":[135.9701215,33.6723738]},"properties":{"amenity":"cinema","name":"ジストシネマ"}},
{"type":"Feature","geometry":{"type":"Point","coordinates":[135.7676939,35.0078804]},"properties":{"amenity":"cinema","name":"Movix京都三条","name:en":"Movix Kyoto Sanjo"}},
{"type":"Feature","geometry":{"type":"Point","coordinates":[135.5585916,34.8115481]},"properties":{"amenity":"cinema","name":"イオンシネマ茨木"}},
{"type":"Feature","geometry":{"type":"Point","coordinates":[135.4881071,34.8323161]},"properties":{"amenity":"cinema","level":"1","name":"109シネマズ箕面","name:en":"109 CINEMAS MINOH","name:ja_rm":"Ichimarukyu shinemazu minoo"}},
{"type":"Feature","geometry":{"type":"Point","coordinates":[135.5000341,34.7033204]},"properties":{"amenity":"cinema","name":"TOHOシネマズ梅田","name:en":"TOHO Cinemas Umeda","name:vi":"rạp chiếu phim TOHO umeda"}},
{"type":"Feature","geometry":{"type":"Point","coordinates":[135.1681523,34.6791585]},"properties":{"amenity":"cinema","name":"パルシネマ しんこうえん"}},
{"type":"Feature","geometry":{"type":"Point","coordinates":[135.7588464,35.0032165]},"properties":{"addr:housenumber":"620","addr:postcode":"600-8411","addr:street":"烏丸通","amenity":"cinema","name":"京都シネマ","name:en":"Kyoto Cinema","name:ja":"京都シネマ","phone":"0753534723","screen":"3","wikidata":"Q11374802","wikipedia":"ja:京都シネマ"}},
{"type":"Feature","geometry":{"type":"Point","coordinates":[134.3925089,34.7563947]},"properties":{"amenity":"cinema","name":"プラット赤穂シネマ"}},
{"type":"Feature","geometry":{"type":"Point","coordinates":[135.1826692,34.6792804]},"properties":{"amenity":"cinema","level":"5;6","name":"OSシネマ","name:en":"OS Cinemas"}},
{"type":"Feature","geometry":{"type":"Point","coordinates":[135.7549279,34.9822735]},"properties":{"amenity":"cinema","level":"5","name":"T・ジョイ京都","name:en":"T-joy Kyoto","wheelchair":"yes"}},
{"type":"Feature","geometry":{"type":"Point","coordinates":[135.4905707,34.7053446]},"properties":{"amenity":"cinema","level":"3","name":"シネ・リーブル梅田","screen":"2"}},
{"type":"Feature","geometry":{"type":"Point","coordinates":[135.4962387,34.703372]},"properties":{"amenity":"cinema","email":"osaka-info@shochiku.co.jp","level":"10","name":"大阪ステーションシティシネマ","phone":"+81 6 6346 3215","website":"https://www.osakastationcitycinema.com/"}},
{"type":"Feature","geometry":{"type":"Point","coordinates":[135.5000505,34.7080493]},"properties":{"amenity":"cinema","level":"-1","name":"テアトル梅田","name:en":"Theatre Umeda","phone":"06-6359-1080","website":"http://www.ttcg.jp/theatre_umeda/"}},
{"type":"Feature","geometry":{"type":"Point","coordinates":[135.5024336,34.6608934]},"properties":{"amenity":"cinema","level":"7","name":"なんばパークスシネマ","name:en":"Namba Parks Cinema","website":"https://www.parkscinema.com/site/namba/"}},
{"type":"Feature","geometry":{"type":"Point","coordinates":[135.3710233,34.4672008]},"properties":{"amenity":"cinema","branch":"岸和田","branch:en":"Kishiwada","brand":"ユナイテッド・シネマ","brand:en":"United Cinemas","brand:ja":"ユナイテッド・シネマ","brand:wikidata":"Q11345629","name":"ユナイテッド・シネマ","name:en":"United Cinemas","name:ja":"ユナイテッド・シネマ","website":"https://www.unitedcinemas.jp/kishiwada/"}},
{"type":"Feature","geometry":{"type":"Point","coordinates":[135.7690318,35.0302009]},"properties":{"addr:block_number":"133","addr:city":"京都市","addr:postcode":"602-0823","addr:province":"京都府","addr:quarter":"三芳町","addr:street":"出町桝形商店街","addr:suburb":"上京区","amenity":"cinema","name":"出町座","name:en":"Demachiza","phone":"075-203-9862","screen":"2","website":"https://demachiza.com/","wikidata":"Q60987952","wikipedia":"ja:出町座"}},
{"type":"Feature","geometry":{"type":"Point","coordinates":[136.6205853,34.9677177]},"properties":{"amenity":"cinema","name":"ロッポニカ四日市","wikidata":"Q60985500","wikipedia":"ja:ロッポニカ四日市"}},
{"type":"Feature","geometry":{"type":"Point","coordinates":[135.4827852,34.7212704]},"properties":{"amenity":"cinema","name":"元弥生座"}},
{"type":"Feature","geometry":{"type":"Point","coordinates":[135.4135766,34.7209508]},"properties":{"amenity":"cinema","name":"尼崎パレス","short_name":"尼パレ","source":"local knowledge"}},
{"type":"Feature","geometry":{"type":"Point","coordinates":[135.3609149,34.7438563]},"properties":{"amenity":"cinema","level":"4","name":"TOHOシネマズ 西宮OS"}},
{"type":"Feature","geometry":{"type":"Point","coordinates":[135.1488167,34.2764645]},"properties":{"amenity":"cinema","name":"イオンシネマ"}},
{"type":"Feature","geometry":{"type":"Point","coordinates":[134.937585,34.6809215]},"properties":{"amenity":"cinema","branch":"明石","name":"イオンシネマ","name:en":"AEON Cinema","name:ja":"イオンシネマ","opening_hours":"09:00-24:00","website":"https://cinema.aeoncinema.com/wm/akashi/"}},
{"type":"Feature","geometry":{"type":"Point","coordinates":[135.5809665,34.7505164]},"properties":{"amenity":"cinema","name":"イオンシネマ","name:en":"AEON Cinema","name:ja":"イオンシネマ","website":"https://cinema.aeoncinema.com/wm/dainichi/"}},
{"type":"Feature","geometry":{"type":"Point","coordinates":[136.2509018,35.243871]},"properties":{"amenity":"cinema","name":"Viva Cityシネマ","name:en":"Viva City Cinema","name:ja":"Viva Cityシネマ","website":"http://www.vivacitycinema.co.jp/"}},
{"type":"Feature","geometry":{"type":"Point","coordinates":[136.6128713,34.5813021]},"properties":{"addr:city":"多気郡","addr:country":"JP","addr:neighbourhood":"1223","addr:postcode":"515-0348","addr:province":"三重県","addr:quarter":"明和町中村","amenity":"cinema","branch":"明和","branch:en":"Meiwa","level":"2","name":"109シネマズ","name:en":"109 Cinemas","name:ja":"109シネマズ","website":"https://109cinemas.net/meiwa/"}},
{"type":"Feature","geometry":{"type":"Point","coordinates":[136.5308467,34.8716328]},"properties":{"addr:block_number":"1","addr:city":"鈴鹿市","addr:country":"JP","addr:housenumber":"2","addr:neighbourhood":"4","addr:postcode":"513-0834","addr:province":"三重県","addr:quarter":"庄野羽山","amenity":"cinema","branch":"鈴鹿","branch:en":"Suzuka","brand":"イオンシネマ","brand:en":"AEON Cinema","brand:ja":"イオンシネマ","brand:wikidata":"Q17192792","brand:wikipedia":"ja:イオンエンターテイメント","level":"2","name":"イオンシネマ","name:en":"AEON Cinema","name:ja":"イオンシネマ","phone":"059-370-8787","website":"https://www.aeoncinema.com/cinema/suzuka/"}},
{"type":"Feature","geometry":{"type":"Point","coordinates":[136.6124368,34.5813851]},"properties":{"amenity":"cinema","name":"109シネマズ明和"}},
{"type":"Feature","geometry":{"type":"Point","coordinates":[135.424733,34.7806845]},"properties":{"amenity":"cinema","branch":"伊丹","contact:website":"https://hlo.tohotheater.jp/net/schedule/038/TNPI2000J01.do","indoor":"area","level":"3","name":"Tohoシネマズ","source":"local knowledge","wheelchair":"yes"}},
{"type":"Feature","geometry":{"type":"Point","coordinates":[135.7602697,35.0312115]},"properties":{"amenity":"cinema"}},
{"type":"Feature","geometry":{"type":"Point","coordinates":[135.377263,33.7442702]},"properties":{"amenity":"cinema","name":"ジストシネマ田辺"}},
{"type":"Feature","geometry":{"type":"Point","coordinates":[135.9690238,33.6754466]},"properties":{"amenity":"cinema","name":"シネマクラブ"}},
{"type":"Feature","geometry":{"type":"Point","coordinates":[135.1491517,33.8974771]},"properties":{"amenity":"cinema","name":"ジストシネマ御坊"}},
{"type":"Feature","geometry":{"type":"Point","coordinates":[135.7512844,34.9795604]},"properties":{"amenity":"cinema","name":"Kyoto Minami Kaikan","name:ja":"京都みなみ会館","screen":"3","wikidata":"Q11374778","wikipedia":"ja:京都みなみ会館"}},
{"type":"Feature","geometry":{"type":"Point","coordinates":[135.5001865,34.4794431]},"properties":{"amenity":"cinema","brand":"TOHOシネマズ","brand:en":"TOHO CINEMAS","brand:ja":"TOHOシネマズ","brand:wikidata":"Q11235261","brand:wikipedia":"ja:TOHOシネマズ","name":"TOHOシネマズ","name:en":"Toho Cinemas","name:ja":"TOHOシネマズ","short_name":"TOHO"}},
{"type":"Feature","geometry":{"type":"Point","coordinates":[135.7600248,35.0093791]},"properties":{"addr:city":"京都市","addr:neighbourhood":"烏丸通姉小路下ル","addr:province":"京都府","addr:quarter":"場之町","addr:suburb":"中京区","amenity":"cinema","name":"UPLINK Kyoto","name:ja":"アップリンク京都","opening_date":"2020","screen":"4","wikidata":"Q11283851","wikipedia":"ja:アップリンク (映画会社)"}},
{"type":"Feature","geometry":{"type":"LineString","coordinates":[[135.7412354,35.0236408],[135.7412422,35.023487],[135.7413203,35.0234895],[135.7413203,35.0234961],[135.741628,35.0235016],[135.7416244,35.0236623],[135.7412354,35.0236408]]},"properties":{"amenity":"cinema","name":"千本日活(senbonnikkatsu)"}},
{"type":"Feature","geometry":{"type":"LineString","coordinates":[[136.1724101,34.9775204],[136.1727371,34.9769826],[136.1720611,34.9767184],[136.1720898,34.9766514],[136.1719617,34.9766043],[136.1718579,34.9767781],[136.1718358,34.9767781],[136.1717054,34.9769813],[136.1716878,34.9770088],[136.1716712,34.9770347],[136.1716993,34.9770467],[136.1716323,34.9771522],[136.1716296,34.9771907],[136.1716524,34.9772303],[136.1716939,34.977261],[136.1717489,34.9772764],[136.1717999,34.9772731],[136.1718146,34.9772687],[136.1724101,34.9775204]]},"properties":{"amenity":"cinema","building":"yes","name":"アレックスシネマ水口","name:en":"Alex Cinemas"}},
{"type":"Feature","geometry":{"type":"LineString","coordinates":[[135.5071784,34.6521299],[135.507395,34.6520809],[135.507414,34.6520426],[135.507374,34.6519228],[135.5071278,34.6519783],[135.5071784,34.6521299]]},"properties":{"amenity":"cinema","building":"yes","name":"新世界国際劇場"}},
{"type":"Feature","geometry":{"type":"LineString","coordinates":[[135.1862631,34.9086551],[135.1855271,34.9082883],[135.1858228,34.9078893],[135.1859106,34.907933],[135.1859654,34.907859],[135.1866136,34.908182],[135.1862631,34.9086551]]},"properties":{"addr:block_number":"6","addr:city":"三田市","addr:country":"JP","addr:housenumber":"2","addr:neighbourhood":"1","addr:postcode":"669-1321","addr:province":"兵庫県","addr:quarter":"けやき台","amenity":"cinema","branch":"三田ウッディタウン","branch:en":"Sanda Woody Town","brand":"イオンシネマ","brand:en":"AEON Cinema","brand:ja":"イオンシネマ","brand:wikidata":"Q17192792","building":"retail","level":"2","name":"イオンシネマ","name:en":"AEON Cinema","name:ja":"イオンシネマ","operator":"イオンエンターテイメント株式会社","operator:en":"Aeon Entertainment Co., Ltd.","phone":"+81 79 564 8800","website":"http://shop.aeon.jp/store/01/0104250/"}},
{"type":"Feature","geometry":{"type":"LineString","coordinates":[[135.5606841,34.6644737],[135.5611213,34.6644889],[135.5611344,34.6643135],[135.5610207,34.6643065],[135.5609224,34.6642836],[135.5608741,34.664285],[135.5608198,34.6643005],[135.5607896,34.6643147],[135.5607661,34.6643297],[135.5607362,34.6643514],[135.5606904,34.6643499],[135.5606841,34.6644737]]},"properties":{"amenity":"cinema","building":"yes","name":"布施ラインシネマ","source:geometry":"Bing","source:geometry:date":"8/27/2010-4/4/2011","source:name":"survey 2016-07-19"}},
{"type":"Feature","geometry":{"type":"LineString","coordinates":[[136.6994765,34.4963819],[136.6995811,34.4963929],[136.6995971,34.4963332],[136.6996454,34.4963421],[136.6996669,34.4962338],[136.6995945,34.4962315],[136.6996347,34.4960459],[136.6994925,34.4960237],[136.6994577,34.4961719],[136.6994228,34.4961608],[136.6994148,34.4962404],[136.6994657,34.4962514],[136.6994335,34.4963089],[136.6994952,34.4963178],[136.6994765,34.4963819]]},"properties":{"amenity":"cinema","building":"yes"}},
{"type":"Feature","geometry":{"type":"LineString","coordinates":[[135.1694541,34.6788657],[135.1694646,34.6788768],[135.169452,34.6788848],[135.1695084,34.6789447],[135.1695871,34.6788946],[135.169569,34.6788754],[135.1696256,34.6788393],[135.1695769,34.6787876],[135.1694541,34.6788657]]},"properties":{"amenity":"cinema","building":"yes","name":"福原国際東映"}},
{"type":"Feature","geometry":{"type":"LineString","coordinates":[[134.8245407,35.5461794],[134.8245255,35.5459101],[134.8246986,35.5459052],[134.8247137,35.5459397],[134.8247896,35.5459249],[134.82482,35.5461473],[134.8245407,35.5461794]]},"properties":{"amenity":"cinema","building":"yes","name":"豊岡劇場","wikidata":"Q11633423","wikipedia":"ja:豊岡劇場"}},
{"type":"Feature","geometry":{"type":"MultiPolygon","coordinates":[[[[135.7412354,35.0236408],[135.7412422,35.023487],[135.7413203,35.0234895],[135.7413203,35.0234961],[135.741628,35.0235016],[135.7416244,35.0236623],[135.7412354,35.0236408]]]]},"properties":{"amenity":"cinema","name":"千本日活(senbonnikkatsu)"}},
{"type":"Feature","geometry":{"type":"MultiPolygon","coordinates":[[[[136.1716296,34.9771907],[136.1716323,34.9771522],[136.1716993,34.9770467],[136.1716712,34.9770347],[136.1716878,34.9770088],[136.1717054,34.9769813],[136.1718358,34.9767781],[136.1718579,34.9767781],[136.1719617,34.9766043],[136.1720898,34.9766514],[136.1720611,34.9767184],[136.1727371,34.9769826],[136.1724101,34.9775204],[136.1718146,34.9772687],[136.1717999,34.9772731],[136.1717489,34.9772764],[136.1716939,34.977261],[136.1716524,34.9772303],[136.1716296,34.9771907]]]]},"properties":{"amenity":"cinema","building":"yes","name":"アレックスシネマ水口","name:en":"Alex Cinemas"}},
{"type":"Feature","geometry":{"type":"MultiPolygon","coordinates":[[[[135.5071278,34.6519783],[135.507374,34.6519228],[135.507414,34.6520426],[135.507395,34.6520809],[135.5071784,34.6521299],[135.5071278,34.6519783]]]]},"properties":{"amenity":"cinema","building":"yes","name":"新世界国際劇場"}},
{"type":"Feature","geometry":{"type":"MultiPolygon","coordinates":[[[[135.1855271,34.9082883],[135.1858228,34.9078893],[135.1859106,34.907933],[135.1859654,34.907859],[135.1866136,34.908182],[135.1862631,34.9086551],[135.1855271,34.9082883]]]]},"properties":{"addr:block_number":"6","addr:city":"三田市","addr:country":"JP","addr:housenumber":"2","addr:neighbourhood":"1","addr:postcode":"669-1321","addr:province":"兵庫県","addr:quarter":"けやき台","amenity":"cinema","branch":"三田ウッディタウン","branch:en":"Sanda Woody Town","brand":"イオンシネマ","brand:en":"AEON Cinema","brand:ja":"イオンシネマ","brand:wikidata":"Q17192792","building":"retail","level":"2","name":"イオンシネマ","name:en":"AEON Cinema","name:ja":"イオンシネマ","operator":"イオンエンターテイメント株式会社","operator:en":"Aeon Entertainment Co., Ltd.","phone":"+81 79 564 8800","website":"http://shop.aeon.jp/store/01/0104250/"}},
{"type":"Feature","geometry":{"type":"MultiPolygon","coordinates":[[[[135.5606841,34.6644737],[135.5606904,34.6643499],[135.5607362,34.6643514],[135.5607661,34.6643297],[135.5607896,34.6643147],[135.5608198,34.6643005],[135.5608741,34.664285],[135.5609224,34.6642836],[135.5610207,34.6643065],[135.5611344,34.6643135],[135.5611213,34.6644889],[135.5606841,34.6644737]]]]},"properties":{"amenity":"cinema","building":"yes","name":"布施ラインシネマ","source:geometry":"Bing","source:geometry:date":"8/27/2010-4/4/2011","source:name":"survey 2016-07-19"}},
{"type":"Feature","geometry":{"type":"MultiPolygon","coordinates":[[[[136.6994148,34.4962404],[136.6994228,34.4961608],[136.6994577,34.4961719],[136.6994925,34.4960237],[136.6996347,34.4960459],[136.6995945,34.4962315],[136.6996669,34.4962338],[136.6996454,34.4963421],[136.6995971,34.4963332],[136.6995811,34.4963929],[136.6994765,34.4963819],[136.6994952,34.4963178],[136.6994335,34.4963089],[136.6994657,34.4962514],[136.6994148,34.4962404]]]]},"properties":{"amenity":"cinema","building":"yes"}},
{"type":"Feature","geometry":{"type":"MultiPolygon","coordinates":[[[[135.169452,34.6788848],[135.1694646,34.6788768],[135.1694541,34.6788657],[135.1695769,34.6787876],[135.1696256,34.6788393],[135.169569,34.6788754],[135.1695871,34.6788946],[135.1695084,34.6789447],[135.169452,34.6788848]]]]},"properties":{"amenity":"cinema","building":"yes","name":"福原国際東映"}},
{"type":"Feature","geometry":{"type":"MultiPolygon","coordinates":[[[[134.8245255,35.5459101],[134.8246986,35.5459052],[134.8247137,35.5459397],[134.8247896,35.5459249],[134.82482,35.5461473],[134.8245407,35.5461794],[134.8245255,35.5459101]]]]},"properties":{"amenity":"cinema","building":"yes","name":"豊岡劇場","wikidata":"Q11633423","wikipedia":"ja:豊岡劇場"}}
]}
